CCSDS_OMM_VERS,COMMENT,CREATION_DATE,ORIGINATOR,OBJECT_NAME,OBJECT_ID,CENTER_NAME,REF_FRAME,TIME_SYSTEM,MEAN_ELEMENT_THEORY,EPOCH,MEAN_MOTION,ECCENTRICITY,INCLINATION,RA_OF_ASC_NODE,ARG_OF_PERICENTER,MEAN_ANOMALY,EPHEMERIS_TYPE,CLASSIFICATION_TYPE,NORAD_CAT_ID,ELEMENT_SET_NO,REV_AT_EPOCH,BSTAR,MEAN_MOTION_DOT,MEAN_MOTION_DDOT,SEMIMAJOR_AXIS,PERIOD,APOAPSIS,PERIAPSIS,OBJECT_TYPE,RCS_SIZE,COUNTRY_CODE,LAUNCH_DATE,SITE,DECAY_DATE,FILE,GP_ID,TLE_LINE0,TLE_LINE1,TLE_LINE2
"2.0","GENERATED VIA SPACE-TRACK.ORG API","2009-02-10T11:59:22","18 SPCS","IRIDIUM 33","1997-051C","EARTH","TEME","UTC","SGP4","2009-02-10T18:16:11.094527","14.34220263","0.00022530","86.3989","121.2960","89.6115","270.5342","0","U","24946","999","59747","0.00004566400000","0.00000148","0.0000000000000","7155.800","100.402","779.277","776.053","PAYLOAD","LARGE","US","1997-09-14","TTMTR","","670813","69867804","0 IRIDIUM 33","1 24946U 97051C   09041.76123952  .00000148  00000-0  45664-4 0  9998","2 24946 086.3989 121.2960 0002253 089.6115 270.5342 14.34220263597475"
"2.0","GENERATED VIA SPACE-TRACK.ORG API","2009-02-12T03:06:18","18 SPCS","COSMOS 2251","1993-036A","EARTH","TEME","UTC","SGP4","2009-02-12T02:00:40.135103","14.32047327","0.00248520","74.0399","14.7272","157.0294","203.2039","0","U","22675","999","81778","0.00010000000000","0.00000244","0.0000000000000","7163.037","100.555","802.703","767.100","PAYLOAD","LARGE","CIS","1993-06-16","PKMTR","","671548","69883965","0 COSMOS 2251","1 22675U 93036A   09043.08379786  .00000244  00000-0  10000-3 0  9991","2 22675 074.0399 014.7272 0024852 157.0294 203.2039 14.32047327817781"
"2.0","GENERATED VIA SPACE-TRACK.ORG API","2009-02-12T03:06:18","18 SPCS","IRIDIUM 33","1997-051C","EARTH","TEME","UTC","SGP4","2009-02-12T03:48:05.340096","14.32479644","0.00105870","86.3910","120.6806","81.0572","279.1894","0","U","24946","999","59767","0.00010000000000","0.00000291","0.0000000000000","7161.595","100.524","791.042","775.878","PAYLOAD","LARGE","US","1997-09-14","TTMTR","","671548","69883966","0 IRIDIUM 33","1 24946U 97051C   09043.15839514  .00000291  00000-0  10000-3 0  9995","2 24946 086.3910 120.6806 0010587 081.0572 279.1894 14.32479644597679"
"2.0","GENERATED VIA SPACE-TRACK.ORG API","2009-02-12T07:46:21","18 SPCS","COSMOS 2251","1993-036A","EARTH","TEME","UTC","SGP4","2009-02-12T13:44:50.275968","14.32047316","0.00247900","74.0397","13.8359","155.9945","204.2352","0","U","22675","999","81785","0.00010000000000","0.00000244","0.0000000000000","7163.037","100.555","802.659","767.145","PAYLOAD","LARGE","CIS","1993-06-16","PKMTR","","671815","69888338","0 COSMOS 2251","1 22675U 93036A   09043.57280412  .00000244  00000-0  10000-3 0  9992","2 22675 074.0397 013.8359 0024790 155.9945 204.2352 14.32047316817851"
"2.0","GENERATED VIA SPACE-TRACK.ORG API","2009-02-12T07:52:43","18 SPCS","IRIDIUM 33","1997-051C","EARTH","TEME","UTC","SGP4","2009-02-12T13:51:37.048896","14.32467814","0.00104610","86.3907","120.5067","81.1353","279.0743","0","U","24946","999","59773","0.00010000000000","0.00000290","0.0000000000000","7161.635","100.525","790.992","776.008","PAYLOAD","LARGE","US","1997-09-14","TTMTR","","671821","69888448","0 IRIDIUM 33","1 24946U 97051C   09043.57751214  .00000290  00000-0  10000-3 0  9990","2 24946 086.3907 120.5067 0010461 081.1353 279.0743 14.32467814597737"
"2.0","GENERATED VIA SPACE-TRACK.ORG API","2009-02-12T07:46:09","18 SPCS","IRIDIUM 33","1997-051C","EARTH","TEME","UTC","SGP4","2009-02-12T13:51:37.048896","14.32467814","0.00104610","86.3907","120.5067","81.1353","279.0743","0","U","24946","999","59773","0.00010000000000","0.00000290","0.0000000000000","7161.635","100.525","790.992","776.008","PAYLOAD","LARGE","US","1997-09-14","TTMTR","","671814","69888337","0 IRIDIUM 33","1 24946U 97051C   09043.57751214  .00000290  00000-0  10000-3 0  9990","2 24946 086.3907 120.5067 0010461 081.1353 279.0743 14.32467814597737"
"2.0","GENERATED VIA SPACE-TRACK.ORG API","2009-02-12T09:36:05","18 SPCS","COSMOS 2251","1993-036A","EARTH","TEME","UTC","SGP4","2009-02-12T15:25:26.052959","14.32045077","0.00247790","74.0397","13.7085","155.8477","204.3811","0","U","22675","999","81786","-0.00033225000000","-0.00000921","0.0000000000000","7163.044","100.555","802.658","767.160","PAYLOAD","LARGE","CIS","1993-06-16","PKMTR","","671838","69895539","0 COSMOS 2251","1 22675U 93036A   09043.64266265 -.00000921  00000-0 -33225-3 0  9998","2 22675 074.0397 013.7085 0024779 155.8477 204.3811 14.32045077817866"
"2.0","GENERATED VIA SPACE-TRACK.ORG API","2009-02-12T10:25:33","18 SPCS","IRIDIUM 33","1997-051C","EARTH","TEME","UTC","SGP4","2009-02-12T17:12:48.234816","14.32468535","0.00105410","86.3898","120.4483","81.1908","279.0479","0","U","24946","999","59775","0.00019385000000","0.00000544","0.0000000000000","7161.632","100.525","791.047","775.948","PAYLOAD","LARGE","US","1997-09-14","TTMTR","","671856","69895557","0 IRIDIUM 33","1 24946U 97051C   09043.71722494  .00000544  00000-0  19385-3 0  9991","2 24946 086.3898 120.4483 0010541 081.1908 279.0479 14.32468535597751"
"2.0","GENERATED VIA SPACE-TRACK.ORG API","2009-02-13T11:09:40","18 SPCS","COSMOS 2251","1993-036A","EARTH","TEME","UTC","SGP4","2009-02-12T23:48:24.792767","14.32045680","0.00247430","74.0397","13.0719","155.1442","205.0862","0","U","22675","999","81791","-0.00015993000000","-0.00000457","0.0000000000000","7163.042","100.555","802.631","767.184","PAYLOAD","LARGE","CIS","1993-06-16","PKMTR","","672297","69906529","0 COSMOS 2251","1 22675U 93036A   09043.99195362 -.00000457 +00000-0 -15993-3 0  9991","2 22675 074.0397 013.0719 0024743 155.1442 205.0862 14.32045680817919"
"2.0","GENERATED VIA SPACE-TRACK.ORG API","2009-02-13T11:09:40","18 SPCS","IRIDIUM 33","1997-051C","EARTH","TEME","UTC","SGP4","2009-02-12T23:55:09.664895","14.32467024","0.00105410","86.3898","120.3316","80.2822","279.9540","0","U","24946","999","59779","-0.00007159000000","-0.00000174","0.0000000000000","7161.637","100.525","791.052","775.953","PAYLOAD","LARGE","US","1997-09-14","TTMTR","","672297","69906904","0 IRIDIUM 33","1 24946U 97051C   09043.99663964 -.00000174 +00000-0 -71590-4 0  9995","2 24946 086.3898 120.3316 0010541 080.2822 279.9540 14.32467024597794"
"2.0","GENERATED VIA SPACE-TRACK.ORG API","2009-02-13T07:54:27","18 SPCS","COSMOS 2251","1993-036A","EARTH","TEME","UTC","SGP4","2009-02-13T13:13:10.993151","14.32043395","0.00248620","74.0403","12.0529","154.1258","206.1159","0","U","22675","999","81799","-0.00041208000000","-0.00001136","0.0000000000000","7163.050","100.555","802.724","767.106","PAYLOAD","LARGE","CIS","1993-06-16","PKMTR","","672281","69902146","0 COSMOS 2251","1 22675U 93036A   09044.55082168 -.00001136  00000-0 -41208-3 0  9996","2 22675 074.0403 012.0529 0024862 154.1258 206.1159 14.32043395817991"
"2.0","GENERATED VIA SPACE-TRACK.ORG API","2009-02-13T12:39:36","18 SPCS","IRIDIUM 33","1997-051C","EARTH","TEME","UTC","SGP4","2009-02-13T13:19:52.567392","14.32466164","0.00104190","86.3903","120.0984","78.5189","281.7177","0","U","24946","999","59787","0.00010000000000","0.00000290","0.0000000000000","7161.640","100.525","790.967","776.044","PAYLOAD","LARGE","US","1997-09-14","TTMTR","","672350","69909542","0 IRIDIUM 33","1 24946U 97051C   09044.55546953  .00000290  00000-0  10000-3 0  9991","2 24946 086.3903 120.0984 0010419 078.5189 281.7177 14.32466164597879"
"2.0","GENERATED VIA SPACE-TRACK.ORG API","2009-02-13T12:37:35","18 SPCS","IRIDIUM 33","1997-051C","EARTH","TEME","UTC","SGP4","2009-02-13T13:19:52.567392","14.32466164","0.00104190","86.3903","120.0984","78.5189","281.7177","0","U","24946","999","59787","0.00010000000000","0.00000290","0.0000000000000","7161.640","100.525","790.967","776.044","PAYLOAD","LARGE","US","1997-09-14","TTMTR","","672348","69909493","0 IRIDIUM 33","1 24946U 97051C   09044.55546953  .00000290  00000-0  10000-3 0  9991","2 24946 086.3903 120.0984 0010419 078.5189 281.7177 14.32466164597879"
"2.0","GENERATED VIA SPACE-TRACK.ORG API","2009-02-13T07:54:21","18 SPCS","IRIDIUM 33","1997-051C","EARTH","TEME","UTC","SGP4","2009-02-13T13:19:52.567392","14.32466164","0.00104190","86.3903","120.0984","78.5189","281.7177","0","U","24946","999","59787","0.00010000000000","0.00000290","0.0000000000000","7161.640","100.525","790.967","776.044","PAYLOAD","LARGE","US","1997-09-14","TTMTR","","672280","69902145","0 IRIDIUM 33","1 24946U 97051C   09044.55546953  .00000290  00000-0  10000-3 0  9991","2 24946 086.3903 120.0984 0010419 078.5189 281.7177 14.32466164597879"
"2.0","GENERATED VIA SPACE-TRACK.ORG API","2009-02-13T15:27:05","18 SPCS","COSMOS 2251","1993-036A","EARTH","TEME","UTC","SGP4","2009-02-13T21:36:09.807263","14.32047321","0.00247990","74.0400","11.4163","153.3801","206.8739","0","U","22675","999","81804","0.00010000000000","0.00000244","0.0000000000000","7163.037","100.555","802.665","767.138","PAYLOAD","LARGE","CIS","1993-06-16","PKMTR","","672447","69911526","0 COSMOS 2251","1 22675U 93036A   09044.90011351  .00000244  00000-0  10000-3 0  9994","2 22675 074.0400 011.4163 0024799 153.3801 206.8739 14.32047321818040"
"2.0","GENERATED VIA SPACE-TRACK.ORG API","2009-02-13T15:26:32","18 SPCS","IRIDIUM 33","1997-051C","EARTH","TEME","UTC","SGP4","2009-02-13T21:42:49.375295","14.32468036","0.00104700","86.3899","119.9526","77.1036","283.1366","0","U","24946","999","59792","0.00010000000000","0.00000290","0.0000000000000","7161.634","100.525","790.997","776.001","PAYLOAD","LARGE","US","1997-09-14","TTMTR","","672446","69911525","0 IRIDIUM 33","1 24946U 97051C   09044.90473814  .00000290  00000-0  10000-3 0  9995","2 24946 086.3899 119.9526 0010470 077.1036 283.1366 14.32468036597927"
